[{"OBJECT_NAME":"TRANSPORTER-15 OBJECT V","OBJECT_ID":"2025-276V","EPOCH":"2026-03-09T17:08:31.585344","MEAN_MOTION":15.2021049,"ECCENTRICITY":0.00044492,"INCLINATION":97.4286,"RA_OF_ASC_NODE":144.0632,"ARG_OF_PERICENTER":13.5049,"MEAN_ANOMALY":346.6304,"EPHEMERIS_TYPE":0,"CLASSIFICATION_TYPE":"U","NORAD_CAT_ID":66685,"ELEMENT_SET_NO":999,"REV_AT_EPOCH":1532,"BSTAR":0.00072831858,"MEAN_MOTION_DOT":0.0001574,"MEAN_MOTION_DDOT":0},{"OBJECT_NAME":"FLOCK 4H-27","OBJECT_ID":"2025-276BS","EPOCH":"2026-03-09T15:28:45.305184","MEAN_MOTION":15.19247235,"ECCENTRICITY":9.007e-5,"INCLINATION":97.4236,"RA_OF_ASC_NODE":143.9415,"ARG_OF_PERICENTER":82.7851,"MEAN_ANOMALY":277.3486,"EPHEMERIS_TYPE":0,"CLASSIFICATION_TYPE":"U","NORAD_CAT_ID":66730,"ELEMENT_SET_NO":999,"REV_AT_EPOCH":1531,"BSTAR":0.00032968114,"MEAN_MOTION_DOT":6.882e-5,"MEAN_MOTION_DDOT":0}]
